[{"OBJECT_NAME":"STARLINK-2319","OBJECT_ID":"2021-018D","EPOCH":"2026-03-09T15:17:01.512384","MEAN_MOTION":15.3019597,"ECCENTRICITY":0.0001262,"INCLINATION":53.1599,"RA_OF_ASC_NODE":216.9503,"ARG_OF_PERICENTER":122.8406,"MEAN_ANOMALY":237.2717,"EPHEMERIS_TYPE":0,"CLASSIFICATION_TYPE":"U","NORAD_CAT_ID":47790,"ELEMENT_SET_NO":999,"REV_AT_EPOCH":27709,"BSTAR":3.4593e-5,"MEAN_MOTION_DOT":6.65e-6,"MEAN_MOTION_DDOT":0},{"OBJECT_NAME":"OBJECT A","OBJECT_ID":"2023-189A","EPOCH":"2026-03-09T22:59:06.381600","MEAN_MOTION":15.32403275,"ECCENTRICITY":0.00094831,"INCLINATION":97.4458,"RA_OF_ASC_NODE":86.5997,"ARG_OF_PERICENTER":249.5377,"MEAN_ANOMALY":110.4847,"EPHEMERIS_TYPE":0,"CLASSIFICATION_TYPE":"U","NORAD_CAT_ID":58502,"ELEMENT_SET_NO":999,"REV_AT_EPOCH":12601,"BSTAR":0.00019874471,"MEAN_MOTION_DOT":6.146e-5,"MEAN_MOTION_DDOT":0}]
